HELIOS 1B               
1 25977U 99064A   26086.73880051  .00001572  00000+0  17865-3 0  9996
2 25977  98.1674 349.5110 0001881  49.7918 310.3462 14.87765219687949
TERRA                   
1 25994U 99068A   26086.88522216  .00000414  00000+0  93399-4 0  9992
2 25994  97.9555 139.6215 0003547 113.5733  58.8636 14.61033348397738
SL-16 R/B               
1 26070U 00006B   26086.67532000  .00000314  00000+0  18358-3 0  9991
2 26070  71.0018  60.0158 0015802 161.6699 198.4996 14.15826378351109
TITAN 4B R/B            
1 26474U 00047B   26086.85018491  .00003708  00000+0  23350-3 0  9995
2 26474  67.9913 349.4392 0039809  14.1332 346.0921 15.09727624395653
ENVISAT                 
1 27386U 02009A   26086.88994566  .00000122  00000+0  53428-4 0  9994
2 27386  98.3756  40.0572 0001214  81.5484 294.3688 14.39043112261795
IDEFIX & ARIANE 42P R/B 
1 27422U 02021B   26086.81481534  .00000274  00000+0  12051-3 0  9992
2 27422  98.5890  25.2067 0012553 130.2966 229.9316 14.31038046246614
AQUA                    
1 27424U 02022A   26086.88202017  .00000971  00000+0  20338-3 0  9990
2 27424  98.4204  54.5826 0001092 117.9648 263.3257 14.62017125271395
CZ-4B R/B               
1 27432U 02024C   26086.76557693  .00000032  00000+0  39375-4 0  9991
2 27432  98.8800 140.0781 0049554 332.7797 137.1452 14.14550756231792
MIDORI II (ADEOS-II)    
1 27597U 02056A   26086.79484051  .00000294  00000+0  13331-3 0  9991
2 27597  98.7799  45.4011 0000799  21.3866 338.7349 14.29298226212880
H-2A R/B                
1 27601U 02056E   26086.85049606  .00000297  00000+0  11825-3 0  9996
2 27601  98.3232  46.5281 0071340 107.1534 306.9515 14.33772439216716
CZ-4B R/B               
1 28059U 03049C   26086.74446324  .00000324  00000+0  85736-4 0  9997
2 28059  98.6892  82.3599 0048216 175.2412 184.9252 14.55035729189221
CZ-2C R/B               
1 28222U 04012C   26086.76121368  .00057286  00000+0  54228-3 0  9990
2 28222  97.7185 153.7924 0013223 237.0962 122.9026 15.66684304207101
SL-16 R/B               
1 28353U 04021B   26086.70088669  .00000146  00000+0  10070-3 0  9995
2 28353  71.0007 194.6950 0004912 347.8061  12.2942 14.14594347125388
CZ-4B R/B               
1 28415U 04035C   26086.83836561  .00008079  00000+0  28250-3 0  9997
2 28415  97.3475 120.8646 0029984 263.6360  96.1466 15.29370387182684
CZ-2C R/B               
1 28480U 04046B   26086.78646458  .00000115  00000+0  57408-4 0  9990
2 28480  98.1976   0.6430 0140582 101.2630 260.4388 14.26998277111087
ARIANE 5 R/B            
1 28499U 04049H   26086.48507727  .00000746  00000+0  88994-4 0  9999
2 28499  98.2654 255.6117 0082945 293.7527  65.5003 14.85296655148438
CZ-2D R/B               
1 28738U 05024B   26086.78710166  .00044619  00000+0  51546-3 0  9994
2 28738  97.3587 102.6184 0002607 344.2824  15.8352 15.61774473142605
